[{"OBJECT_NAME":"STARLINK-1297","OBJECT_ID":"2020-019AM","EPOCH":"2026-03-09T21:10:27.474816","MEAN_MOTION":15.541873,"ECCENTRICITY":0.00048298,"INCLINATION":53.0474,"RA_OF_ASC_NODE":129.7713,"ARG_OF_PERICENTER":18.8538,"MEAN_ANOMALY":341.265,"EPHEMERIS_TYPE":0,"CLASSIFICATION_TYPE":"U","NORAD_CAT_ID":45395,"ELEMENT_SET_NO":999,"REV_AT_EPOCH":32944,"BSTAR":0.0015120632,"MEAN_MOTION_DOT":0.00101021,"MEAN_MOTION_DDOT":0},{"OBJECT_NAME":"MDQUBESAT-2","OBJECT_ID":"2023-185P","EPOCH":"2026-03-09T22:55:20.181216","MEAN_MOTION":15.58445161,"ECCENTRICITY":0.00075381,"INCLINATION":97.5425,"RA_OF_ASC_NODE":156.0719,"ARG_OF_PERICENTER":237.8799,"MEAN_ANOMALY":122.1726,"EPHEMERIS_TYPE":0,"CLASSIFICATION_TYPE":"U","NORAD_CAT_ID":58665,"ELEMENT_SET_NO":999,"REV_AT_EPOCH":12232,"BSTAR":0.0018049813,"MEAN_MOTION_DOT":0.00139688,"MEAN_MOTION_DDOT":0}]
